start=new Date('2023-01-26T00:00:00.000Z').valueOf();
sats=[{"TIME_SYSTEM":"UTC","ARG_OF_PERICENTER":"86.8006","GP_ID":"223691990","OBJECT_TYPE":"PAYLOAD","ECCENTRICITY":"0.00010630","OBJECT_ID":"2022-107AX","FILE":"3761297","APOAPSIS":"540.458","COUNTRY_CODE":"US","SITE":"AFETR","SEMIMAJOR_AXIS":"6917.858","MEAN_ANOMALY":"273.3108","ELEMENT_SET_NO":"999","LAUNCH_DATE":"2022-09-05","MEAN_MOTION_DDOT":"0.0000000000000","MEAN_MOTION":"15.08847483","PERIOD":"95.437","DECAY_DATE":null,"EPOCH":"2023-01-25T13:44:41.284320","EPHEMERIS_TYPE":"0","PERIAPSIS":"538.987","MEAN_ELEMENT_THEORY":"SGP4","CLASSIFICATION_TYPE":"U","INCLINATION":"53.2182","REF_FRAME":"TEME","RCS_SIZE":"LARGE","NORAD_CAT_ID":"53745","RA_OF_ASC_NODE":"337.9424","CENTER_NAME":"EARTH","OBJECT_NAME":"STARLINK-4656","TLE_LINE2":"2 53745  53.2182 337.9424 0001063  86.8006 273.3108 15.08847483 22621","MEAN_MOTION_DOT":"0.00006125","BSTAR":"0.00040248000000","REV_AT_EPOCH":"2262","TLE_LINE1":"1 53745U 22107AX  23025.57270005  .00006125  00000-0  40248-3 0  9999"},{"SITE":"AFETR","SEMIMAJOR_AXIS":"6917.866","MEAN_ANOMALY":"246.8490","ELEMENT_SET_NO":"999","LAUNCH_DATE":"2022-09-05","TIME_SYSTEM":"UTC","GP_ID":"223692241","ARG_OF_PERICENTER":"113.2595","OBJECT_TYPE":"PAYLOAD","OBJECT_ID":"2022-107AY","ECCENTRICITY":"0.00008850","FILE":"3761297","APOAPSIS":"540.343","COUNTRY_CODE":"US","DECAY_DATE":null,"EPOCH":"2023-01-25T13:34:04.035072","EPHEMERIS_TYPE":"0","PERIAPSIS":"539.118","MEAN_ELEMENT_THEORY":"SGP4","CLASSIFICATION_TYPE":"U","MEAN_MOTION_DDOT":"0.0000000000000","MEAN_MOTION":"15.08844863","PERIOD":"95.437","RA_OF_ASC_NODE":"337.8893","CENTER_NAME":"EARTH","OBJECT_NAME":"STARLINK-4589","INCLINATION":"53.2195","REF_FRAME":"TEME","RCS_SIZE":"LARGE","NORAD_CAT_ID":"53746","TLE_LINE1":"1 53746U 22107AY  23025.56532448  .00008386  00000-0  54430-3 0  9990","TLE_LINE2":"2 53746  53.2195 337.8893 0000885 113.2595 246.8490 15.08844863 22622","MEAN_MOTION_DOT":"0.00008386","BSTAR":"0.00054430000000","REV_AT_EPOCH":"2262"},{"OBJECT_ID":"2022-107BA","ECCENTRICITY":"0.00012800","OBJECT_TYPE":"PAYLOAD","GP_ID":"223690991","ARG_OF_PERICENTER":"107.9162","TIME_SYSTEM":"UTC","COUNTRY_CODE":"US","APOAPSIS":"540.650","FILE":"3761297","SITE":"AFETR","ELEMENT_SET_NO":"999","LAUNCH_DATE":"2022-09-05","MEAN_ANOMALY":"252.1969","SEMIMAJOR_AXIS":"6917.900","MEAN_MOTION_DDOT":"0.0000000000000","MEAN_MOTION":"15.08833721","PERIOD":"95.438","EPHEMERIS_TYPE":"0","EPOCH":"2023-01-25T13:49:59.391840","DECAY_DATE":null,"CLASSIFICATION_TYPE":"U","PERIAPSIS":"538.879","MEAN_ELEMENT_THEORY":"SGP4","INCLINATION":"53.2206","NORAD_CAT_ID":"53748","RCS_SIZE":"LARGE","REF_FRAME":"TEME","CENTER_NAME":"EARTH","RA_OF_ASC_NODE":"337.9602","OBJECT_NAME":"STARLINK-4669","BSTAR":"0.00085583000000","MEAN_MOTION_DOT":"0.00013356","TLE_LINE2":"2 53748  53.2206 337.9602 0001280 107.9162 252.1969 15.08833721 22628","REV_AT_EPOCH":"2262","TLE_LINE1":"1 53748U 22107BA  23025.57638185  .00013356  00000-0  85583-3 0  9994"},{"MEAN_MOTION_DDOT":"0.0000000000000","MEAN_MOTION":"15.08847346","PERIOD":"95.437","EPHEMERIS_TYPE":"0","EPOCH":"2023-01-25T05:58:21.603360","DECAY_DATE":null,"CLASSIFICATION_TYPE":"U","MEAN_ELEMENT_THEORY":"SGP4","PERIAPSIS":"538.929","ECCENTRICITY":"0.00011470","OBJECT_ID":"2022-107BB","OBJECT_TYPE":"PAYLOAD","ARG_OF_PERICENTER":"107.8551","GP_ID":"223652630","TIME_SYSTEM":"UTC","COUNTRY_CODE":"US","APOAPSIS":"540.516","FILE":"3760651","SITE":"AFETR","LAUNCH_DATE":"2022-09-05","ELEMENT_SET_NO":"999","MEAN_ANOMALY":"252.2566","SEMIMAJOR_AXIS":"6917.858","BSTAR":"0.00050582000000","MEAN_MOTION_DOT":"0.00007773","TLE_LINE2":"2 53749  53.2193 339.4332 0001147 107.8551 252.2566 15.08847346 21793","REV_AT_EPOCH":"2179","TLE_LINE1":"1 53749U 22107BB  23025.24886115  .00007773  00000-0  50582-3 0  9994","INCLINATION":"53.2193","NORAD_CAT_ID":"53749","RCS_SIZE":"LARGE","REF_FRAME":"TEME","CENTER_NAME":"EARTH","RA_OF_ASC_NODE":"339.4332","OBJECT_NAME":"STARLINK-4680"},{"INCLINATION":"53.2179","NORAD_CAT_ID":"53750","REF_FRAME":"TEME","RCS_SIZE":"LARGE","CENTER_NAME":"EARTH","RA_OF_ASC_NODE":"338.0118","OBJECT_NAME":"STARLINK-4612","BSTAR":"0.00152990000000","TLE_LINE2":"2 53750  53.2179 338.0118 0001699  77.9014 282.2169 15.08828827 22638","MEAN_MOTION_DOT":"0.00024137","REV_AT_EPOCH":"2263","TLE_LINE1":"1 53750U 22107BC  23025.58375317  .00024137  00000-0  15299-2 0  9998","OBJECT_TYPE":"PAYLOAD","OBJECT_ID":"2022-107BC","ECCENTRICITY":"0.00016990","TIME_SYSTEM":"UTC","GP_ID":"223692488","ARG_OF_PERICENTER":"77.9014","COUNTRY_CODE":"US","FILE":"3761297","APOAPSIS":"540.955","SITE":"AFETR","MEAN_ANOMALY":"282.2169","LAUNCH_DATE":"2022-09-05","ELEMENT_SET_NO":"999","SEMIMAJOR_AXIS":"6917.915","MEAN_MOTION":"15.08828827","MEAN_MOTION_DDOT":"0.0000000000000","PERIOD":"95.438","EPHEMERIS_TYPE":"0","DECAY_DATE":null,"EPOCH":"2023-01-25T14:00:36.273888","CLASSIFICATION_TYPE":"U","MEAN_ELEMENT_THEORY":"SGP4","PERIAPSIS":"538.604"},{"TIME_SYSTEM":"UTC","ARG_OF_PERICENTER":"87.2970","GP_ID":"223692490","OBJECT_TYPE":"PAYLOAD","ECCENTRICITY":"0.00011630","OBJECT_ID":"2022-111A","FILE":"3761297","APOAPSIS":"540.476","COUNTRY_CODE":"US","SITE":"AFETR","SEMIMAJOR_AXIS":"6917.807","MEAN_ANOMALY":"272.8155","LAUNCH_DATE":"2022-09-11","ELEMENT_SET_NO":"999","MEAN_MOTION":"15.08864066","MEAN_MOTION_DDOT":"0.0000000000000","PERIOD":"95.436","DECAY_DATE":null,"EPOCH":"2023-01-25T08:08:08.714400","EPHEMERIS_TYPE":"0","MEAN_ELEMENT_THEORY":"SGP4","PERIAPSIS":"538.867","CLASSIFICATION_TYPE":"U","INCLINATION":"53.2203","REF_FRAME":"TEME","RCS_SIZE":"LARGE","NORAD_CAT_ID":"53773","RA_OF_ASC_NODE":"358.7844","CENTER_NAME":"EARTH","OBJECT_NAME":"STARLINK-4718","TLE_LINE2":"2 53773  53.2203 358.7844 0001163  87.2970 272.8155 15.08864066 21844","MEAN_MOTION_DOT":"0.00024208","BSTAR":"0.00153290000000","REV_AT_EPOCH":"2184","TLE_LINE1":"1 53773U 22111A   23025.33898975  .00024208  00000-0  15329-2 0  9994"},{"OBJECT_NAME":"STARLINK-4719","RA_OF_ASC_NODE":"358.7562","CENTER_NAME":"EARTH","REF_FRAME":"TEME","RCS_SIZE":"LARGE","NORAD_CAT_ID":"53774","INCLINATION":"53.2208","TLE_LINE1":"1 53774U 22111B   23025.33530330  .00010267  00000-0  66198-3 0  9994","REV_AT_EPOCH":"2170","TLE_LINE2":"2 53774  53.2208 358.7562 0001264  90.5293 269.5844 15.08853972 21701","MEAN_MOTION_DOT":"0.00010267","BSTAR":"0.00066198000000","SEMIMAJOR_AXIS":"6917.838","MEAN_ANOMALY":"269.5844","LAUNCH_DATE":"2022-09-11","ELEMENT_SET_NO":"999","SITE":"AFETR","FILE":"3761297","APOAPSIS":"540.577","COUNTRY_CODE":"US","TIME_SYSTEM":"UTC","GP_ID":"223692741","ARG_OF_PERICENTER":"90.5293","OBJECT_TYPE":"PAYLOAD","ECCENTRICITY":"0.00012640","OBJECT_ID":"2022-111B","PERIAPSIS":"538.828","MEAN_ELEMENT_THEORY":"SGP4","CLASSIFICATION_TYPE":"U","DECAY_DATE":null,"EPOCH":"2023-01-25T08:02:50.205120","EPHEMERIS_TYPE":"0","PERIOD":"95.437","MEAN_MOTION_DDOT":"0.0000000000000","MEAN_MOTION":"15.08853972"},{"OBJECT_TYPE":"PAYLOAD","OBJECT_ID":"2022-111C","ECCENTRICITY":"0.00013430","TIME_SYSTEM":"UTC","GP_ID":"223720792","ARG_OF_PERICENTER":"86.6988","COUNTRY_CODE":"US","FILE":"3761360","APOAPSIS":"540.699","SITE":"AFETR","MEAN_ANOMALY":"273.4158","LAUNCH_DATE":"2022-09-11","ELEMENT_SET_NO":"999","SEMIMAJOR_AXIS":"6917.905","MEAN_MOTION":"15.08832093","MEAN_MOTION_DDOT":"0.0000000000000","PERIOD":"95.438","EPHEMERIS_TYPE":"0","DECAY_DATE":null,"EPOCH":"2023-01-25T15:08:10.265568","CLASSIFICATION_TYPE":"U","PERIAPSIS":"538.840","MEAN_ELEMENT_THEORY":"SGP4","INCLINATION":"53.2203","NORAD_CAT_ID":"53775","REF_FRAME":"TEME","RCS_SIZE":"LARGE","CENTER_NAME":"EARTH","RA_OF_ASC_NODE":"347.7882","OBJECT_NAME":"STARLINK-4722","BSTAR":"-0.00004491600000","TLE_LINE2":"2 53775  53.2203 347.7882 0001343  86.6988 273.4158 15.08832093 21731","MEAN_MOTION_DOT":"-0.00001002","REV_AT_EPOCH":"2173","TLE_LINE1":"1 53775U 22111C   23025.63067437 -.00001002  00000-0 -44916-4 0  9995"},{"SEMIMAJOR_AXIS":"6917.898","MEAN_ANOMALY":"281.6533","ELEMENT_SET_NO":"999","LAUNCH_DATE":"2022-09-11","SITE":"AFETR","FILE":"3761360","APOAPSIS":"540.609","COUNTRY_CODE":"US","TIME_SYSTEM":"UTC","GP_ID":"223719540","ARG_OF_PERICENTER":"78.4596","OBJECT_TYPE":"PAYLOAD","ECCENTRICITY":"0.00012230","OBJECT_ID":"2022-111D","PERIAPSIS":"538.917","MEAN_ELEMENT_THEORY":"SGP4","CLASSIFICATION_TYPE":"U","DECAY_DATE":null,"EPOCH":"2023-01-25T14:55:37.323264","EPHEMERIS_TYPE":"0","PERIOD":"95.438","MEAN_MOTION_DDOT":"0.0000000000000","MEAN_MOTION":"15.08834354","OBJECT_NAME":"STARLINK-4708","RA_OF_ASC_NODE":"352.7207","CENTER_NAME":"EARTH","REF_FRAME":"TEME","RCS_SIZE":"LARGE","NORAD_CAT_ID":"53776","INCLINATION":"53.2195","TLE_LINE1":"1 53776U 22111D   23025.62195976  .00000820  00000-0  69598-4 0  9993","REV_AT_EPOCH":"2194","TLE_LINE2":"2 53776  53.2195 352.7207 0001223  78.4596 281.6533 15.08834354 21943","MEAN_MOTION_DOT":"0.00000820","BSTAR":"0.00006959800000"},{"BSTAR":"0.00068889000000","TLE_LINE2":"2 53777  53.2191 347.7372 0001761 111.4564 248.6616 15.08837384 21735","MEAN_MOTION_DOT":"0.00010692","REV_AT_EPOCH":"2173","TLE_LINE1":"1 53777U 22111E   23025.62330135  .00010692  00000-0  68889-3 0  9991","INCLINATION":"53.2191","NORAD_CAT_ID":"53777","REF_FRAME":"TEME","RCS_SIZE":"LARGE","CENTER_NAME":"EARTH","RA_OF_ASC_NODE":"347.7372","OBJECT_NAME":"STARLINK-4664","MEAN_MOTION":"15.08837384","MEAN_MOTION_DDOT":"0.0000000000000","PERIOD":"95.438","EPHEMERIS_TYPE":"0","DECAY_DATE":null,"EPOCH":"2023-01-25T14:57:33.236640","CLASSIFICATION_TYPE":"U","PERIAPSIS":"538.535","MEAN_ELEMENT_THEORY":"SGP4","OBJECT_TYPE":"PAYLOAD","ECCENTRICITY":"0.00017610","OBJECT_ID":"2022-111E","TIME_SYSTEM":"UTC","GP_ID":"223719790","ARG_OF_PERICENTER":"111.4564","COUNTRY_CODE":"US","FILE":"3761360","APOAPSIS":"540.972","SITE":"AFETR","MEAN_ANOMALY":"248.6616","ELEMENT_SET_NO":"999","LAUNCH_DATE":"2022-09-11","SEMIMAJOR_AXIS":"6917.888"}];
